{
    "links": {
        "self": "http://www.neowsapp.com/rest/v1/neo/3655764?api_key=iIulBulltgU6a56xZRHN4H3l9WmuAYTsLGpBGhQ2"
    },
    "id": "3655764",
    "neo_reference_id": "3655764",
    "name": "(2014 AM29)",
    "designation": "2014 AM29",
    "nasa_jpl_url": "http://ssd.jpl.nasa.gov/sbdb.cgi?sstr=3655764",
    "absolute_magnitude_h": 25.2,
    "estimated_diameter": {
        "kilometers": {
            "estimated_diameter_min": 0.0242412481,
            "estimated_diameter_max": 0.0542050786
        },
        "meters": {
            "estimated_diameter_min": 24.2412481101,
            "estimated_diameter_max": 54.2050786336
        },
        "miles": {
            "estimated_diameter_min": 0.0150628086,
            "estimated_diameter_max": 0.0336814639
        },
        "feet": {
            "estimated_diameter_min": 79.5316564495,
            "estimated_diameter_max": 177.8381901842
        }
    },
    "is_potentially_hazardous_asteroid": false,
    "close_approach_data": [
        {
            "close_approach_date": "1938-05-17",
            "close_approach_date_full": "1938-May-17 20:22",
            "epoch_date_close_approach": -998019480000,
            "relative_velocity": {
                "kilometers_per_second": "7.2973201559",
                "kilometers_per_hour": "26270.3525612506",
                "miles_per_hour": "16323.3754567393"
            },
            "miss_distance": {
                "astronomical": "1.4673661807",
                "lunar": "570.8054442923",
                "kilometers": "219514855.142755109",
                "miles": "136400206.0241101442"
            },
            "orbiting_body": "Juptr"
        },
        {
            "close_approach_date": "1943-10-21",
            "close_approach_date_full": "1943-Oct-21 01:45",
            "epoch_date_close_approach": -826755300000,
            "relative_velocity": {
                "kilometers_per_second": "19.5249768404",
                "kilometers_per_hour": "70289.9166256063",
                "miles_per_hour": "43675.4206943941"
            },
            "miss_distance": {
                "astronomical": "0.095262548",
                "lunar": "37.057131172",
                "kilometers": "14251074.27157276",
                "miles": "8855206.930953688"
            },
            "orbiting_body": "Mars"
        },
        {
            "close_approach_date": "2014-01-12",
            "close_approach_date_full": "2014-Jan-12 15:13",
            "epoch_date_close_approach": 1389539580000,
            "relative_velocity": {
                "kilometers_per_second": "10.8091218154",
                "kilometers_per_hour": "38912.8385354864",
                "miles_per_hour": "24178.9245888971"
            },
            "miss_distance": {
                "astronomical": "0.0267718595",
                "lunar": "10.4142533455",
                "kilometers": "4005013.157139265",
                "miles": "2488599.777941257"
            },
            "orbiting_body": "Earth"
        }
    ],
    "orbital_data": {
        "orbit_id": "9",
        "orbit_determination_date": "2017-04-06 08:42:57",
        "first_observation_date": "2014-01-07",
        "last_observation_date": "2014-01-14",
        "data_arc_in_days": 7,
        "observations_used": 38,
        "orbit_uncertainty": "8",
        "minimum_orbit_intersection": ".00311411",
        "jupiter_tisserand_invariant": "3.103",
        "epoch_osculation": "2456668.5",
        "eccentricity": ".63381989856306",
        "semi_major_axis": "2.585398543361863",
        "inclination": "1.638570904081601",
        "ascending_node_longitude": "124.5697608762949",
        "orbital_period": "1518.412172108785",
        "perihelion_distance": ".9467215008631639",
        "perihelion_argument": "18.98618992723555",
        "aphelion_distance": "4.224075585860561",
        "perihelion_time": "2456693.047681310553",
        "mean_anomaly": "354.1799957652302",
        "mean_motion": ".2370897748402719",
        "equinox": "J2000",
        "orbit_class": {
            "orbit_class_type": "APO",
            "orbit_class_description": "Near-Earth asteroid orbits which cross the Earth’s orbit similar to that of 1862 Apollo",
            "orbit_class_range": "a (semi-major axis) > 1.0 AU; q (perihelion) < 1.017 AU"
        }
    },
    "is_sentry_object": false
}